{
  "type": "FeatureCollection",
  "features": [
    {
      "type": "Feature",
      "properties": {
        "norad_id": 41581,
        "name": "INTELSAT 31 (IS-31)",
        "group": "intelsat",
        "lat": -0.018447592863862307,
        "lon": -140.81251824702267,
        "alt_km": 35778.84454232729,
        "timestamp": "2025-12-24T14:43:28.663638+00:00",
        "meta_object_name": "INTELSAT 31 (IS-31)",
        "meta_object_id": "2016-035A",
        "meta_epoch": "2025-12-23T19:31:44.703840",
        "meta_mean_motion": 1.00269658,
        "meta_eccentricity": 0.0001926,
        "meta_inclination": 0.0283,
        "meta_ra_of_asc_node": 262.055,
        "meta_arg_of_pericenter": 303.365,
        "meta_mean_anomaly": 85.0534,
        "meta_ephemeris_type": 0,
        "meta_classification_type": "U",
        "meta_norad_cat_id": 41581,
        "meta_element_set_no": 999,
        "meta_rev_at_epoch": 3492,
        "meta_bstar": 0,
        "meta_mean_motion_dot": -1.29e-06,
        "meta_mean_motion_ddot": 0,
        "tle_line1": "1 41581U 16035A   25357.81371185 -.00000129  00000+0  00000+0 0  9991",
        "tle_line2": "2 41581   0.0283 262.0550 0001926 303.3650  85.0534  1.00269658 34922"
      },
      "geometry": {
        "type": "Point",
        "coordinates": [
          -140.81251824702267,
          -0.018447592863862307
        ]
      }
    },
    {
      "type": "Feature",
      "properties": {
        "norad_id": 41747,
        "name": "INTELSAT 36 (IS-36)",
        "group": "intelsat",
        "lat": 0.0071796670034583124,
        "lon": 22.75223300745302,
        "alt_km": 35783.720984885316,
        "timestamp": "2025-12-24T14:43:28.663650+00:00",
        "meta_object_name": "INTELSAT 36 (IS-36)",
        "meta_object_id": "2016-053A",
        "meta_epoch": "2025-12-24T04:51:52.467840",
        "meta_mean_motion": 1.00271067,
        "meta_eccentricity": 0.00011393,
        "meta_inclination": 0.0107,
        "meta_ra_of_asc_node": 9.3936,
        "meta_arg_of_pericenter": 315.6911,
        "meta_mean_anomaly": 269.3582,
        "meta_ephemeris_type": 0,
        "meta_classification_type": "U",
        "meta_norad_cat_id": 41747,
        "meta_element_set_no": 999,
        "meta_rev_at_epoch": 3419,
        "meta_bstar": 0,
        "meta_mean_motion_dot": -3e-08,
        "meta_mean_motion_ddot": 0,
        "tle_line1": "1 41747U 16053A   25358.20269060 -.00000003  00000+0  00000+0 0  9998",
        "tle_line2": "2 41747   0.0107   9.3936 0001139 315.6911 269.3582  1.00271067 34199"
      },
      "geometry": {
        "type": "Point",
        "coordinates": [
          22.75223300745302,
          0.0071796670034583124
        ]
      }
    },
    {
      "type": "Feature",
      "properties": {
        "norad_id": 41945,
        "name": "INTELSAT 32E (IS-32E)",
        "group": "intelsat",
        "lat": -0.02557668972661482,
        "lon": -88.93175559712256,
        "alt_km": 35788.06195224512,
        "timestamp": "2025-12-24T14:43:28.663661+00:00",
        "meta_object_name": "INTELSAT 32E (IS-32E)",
        "meta_object_id": "2017-007B",
        "meta_epoch": "2025-12-23T16:21:03.290976",
        "meta_mean_motion": 1.0026875,
        "meta_eccentricity": 2.529e-05,
        "meta_inclination": 0.0225,
        "meta_ra_of_asc_node": 67.8207,
        "meta_arg_of_pericenter": 7.8321,
        "meta_mean_anomaly": 218.9086,
        "meta_ephemeris_type": 0,
        "meta_classification_type": "U",
        "meta_norad_cat_id": 41945,
        "meta_element_set_no": 999,
        "meta_rev_at_epoch": 3246,
        "meta_bstar": 0,
        "meta_mean_motion_dot": -2.48e-06,
        "meta_mean_motion_ddot": 0,
        "tle_line1": "1 41945U 17007B   25357.68128809 -.00000248  00000+0  00000+0 0  9995",
        "tle_line2": "2 41945   0.0225  67.8207 0000252   7.8321 218.9086  1.00268750 32462"
      },
      "geometry": {
        "type": "Point",
        "coordinates": [
          -88.93175559712256,
          -0.02557668972661482
        ]
      }
    },
    {
      "type": "Feature",
      "properties": {
        "norad_id": 42818,
        "name": "INTELSAT 35E (IS-35E)",
        "group": "intelsat",
        "lat": -0.04239965526639286,
        "lon": -80.26883036482471,
        "alt_km": 35778.777540532654,
        "timestamp": "2025-12-24T14:43:28.663673+00:00",
        "meta_object_name": "INTELSAT 35E (IS-35E)",
        "meta_object_id": "2017-041A",
        "meta_epoch": "2025-12-24T04:16:38.864640",
        "meta_mean_motion": 1.00266954,
        "meta_eccentricity": 0.0002055,
        "meta_inclination": 0.0217,
        "meta_ra_of_asc_node": 27.8846,
        "meta_arg_of_pericenter": 251.5822,
        "meta_mean_anomaly": 203.1418,
        "meta_ephemeris_type": 0,
        "meta_classification_type": "U",
        "meta_norad_cat_id": 42818,
        "meta_element_set_no": 999,
        "meta_rev_at_epoch": 3106,
        "meta_bstar": 0,
        "meta_mean_motion_dot": 0,
        "meta_mean_motion_ddot": 0,
        "tle_line1": "1 42818U 17041A   25358.17822760  .00000000  00000+0  00000+0 0  9990",
        "tle_line2": "2 42818   0.0217  27.8846 0002055 251.5822 203.1418  1.00266954 31069"
      },
      "geometry": {
        "type": "Point",
        "coordinates": [
          -80.26883036482471,
          -0.04239965526639286
        ]
      }
    },
    {
      "type": "Feature",
      "properties": {
        "norad_id": 42950,
        "name": "INTELSAT 37E (IS-37E)",
        "group": "intelsat",
        "lat": -0.041991837562594767,
        "lon": -63.72996403510515,
        "alt_km": 35775.80594144833,
        "timestamp": "2025-12-24T14:43:28.663684+00:00",
        "meta_object_name": "INTELSAT 37E (IS-37E)",
        "meta_object_id": "2017-059A",
        "meta_epoch": "2025-12-24T06:09:59.984928",
        "meta_mean_motion": 1.00269955,
        "meta_eccentricity": 0.00030749,
        "meta_inclination": 0.0204,
        "meta_ra_of_asc_node": 18.7977,
        "meta_arg_of_pericenter": 243.4842,
        "meta_mean_anomaly": 265.2563,
        "meta_ephemeris_type": 0,
        "meta_classification_type": "U",
        "meta_norad_cat_id": 42950,
        "meta_element_set_no": 999,
        "meta_rev_at_epoch": 3031,
        "meta_bstar": 0,
        "meta_mean_motion_dot": 0,
        "meta_mean_motion_ddot": 0,
        "tle_line1": "1 42950U 17059A   25358.25694427  .00000000  00000+0  00000+0 0  9992",
        "tle_line2": "2 42950   0.0204  18.7977 0003074 243.4842 265.2563  1.00269955 30311"
      },
      "geometry": {
        "type": "Point",
        "coordinates": [
          -63.72996403510515,
          -0.041991837562594767
        ]
      }
    },
    {
      "type": "Feature",
      "properties": {
        "norad_id": 43632,
        "name": "AZERSPACE 2 (IS-38)",
        "group": "intelsat",
        "lat": -0.005171322306795091,
        "lon": -0.6320279508812008,
        "alt_km": 35785.89074641597,
        "timestamp": "2025-12-24T14:43:28.663696+00:00",
        "meta_object_name": "AZERSPACE 2 (IS-38)",
        "meta_object_id": "2018-074A",
        "meta_epoch": "2025-12-24T04:45:15.602400",
        "meta_mean_motion": 1.002706,
        "meta_eccentricity": 0.00012967,
        "meta_inclination": 0.0172,
        "meta_ra_of_asc_node": 4.4409,
        "meta_arg_of_pericenter": 269.8607,
        "meta_mean_anomaly": 295.0957,
        "meta_ephemeris_type": 0,
        "meta_classification_type": "U",
        "meta_norad_cat_id": 43632,
        "meta_element_set_no": 999,
        "meta_rev_at_epoch": 2669,
        "meta_bstar": 0,
        "meta_mean_motion_dot": 1.57e-06,
        "meta_mean_motion_ddot": 0,
        "tle_line1": "1 43632U 18074A   25358.19809725  .00000157  00000+0  00000+0 0  9993",
        "tle_line2": "2 43632   0.0172   4.4409 0001296 269.8607 295.0957  1.00270600 26693"
      },
      "geometry": {
        "type": "Point",
        "coordinates": [
          -0.6320279508812008,
          -0.005171322306795091
        ]
      }
    },
    {
      "type": "Feature",
      "properties": {
        "norad_id": 43633,
        "name": "HORIZONS-3E",
        "group": "intelsat",
        "lat": -0.008623036687934097,
        "lon": 123.23750679546534,
        "alt_km": 35789.05877341346,
        "timestamp": "2025-12-24T14:43:28.663708+00:00",
        "meta_object_name": "HORIZONS-3E",
        "meta_object_id": "2018-074B",
        "meta_epoch": "2025-12-24T03:06:38.620224",
        "meta_mean_motion": 1.00269598,
        "meta_eccentricity": 5.64e-05,
        "meta_inclination": 0.0124,
        "meta_ra_of_asc_node": 212.287,
        "meta_arg_of_pericenter": 95.6715,
        "meta_mean_anomaly": 0.6032,
        "meta_ephemeris_type": 0,
        "meta_classification_type": "U",
        "meta_norad_cat_id": 43633,
        "meta_element_set_no": 999,
        "meta_rev_at_epoch": 2658,
        "meta_bstar": 0,
        "meta_mean_motion_dot": 0,
        "meta_mean_motion_ddot": 0,
        "tle_line1": "1 43633U 18074B   25358.12961366  .00000000  00000+0  00000+0 0  9994",
        "tle_line2": "2 43633   0.0124 212.2870 0000564  95.6715   0.6032  1.00269598 26580"
      },
      "geometry": {
        "type": "Point",
        "coordinates": [
          123.23750679546534,
          -0.008623036687934097
        ]
      }
    }
  ]
}